[{"OBJECT_NAME":"APEX ARIES 1","OBJECT_ID":"2024-043AH","EPOCH":"2026-03-09T22:31:33.884832","MEAN_MOTION":15.5059844,"ECCENTRICITY":0.0006796,"INCLINATION":97.5323,"RA_OF_ASC_NODE":214.0767,"ARG_OF_PERICENTER":196.1027,"MEAN_ANOMALY":164.001,"EPHEMERIS_TYPE":0,"CLASSIFICATION_TYPE":"U","NORAD_CAT_ID":59129,"ELEMENT_SET_NO":999,"REV_AT_EPOCH":11251,"BSTAR":0.00059174904,"MEAN_MOTION_DOT":0.00033897,"MEAN_MOTION_DDOT":0},{"OBJECT_NAME":"STARLINK-36615","OBJECT_ID":"2026-020E","EPOCH":"2026-03-09T22:00:01.999584","MEAN_MOTION":15.65039115,"ECCENTRICITY":0.00012613,"INCLINATION":42.9993,"RA_OF_ASC_NODE":140.2982,"ARG_OF_PERICENTER":280.8811,"MEAN_ANOMALY":217.6824,"EPHEMERIS_TYPE":0,"CLASSIFICATION_TYPE":"U","NORAD_CAT_ID":67621,"ELEMENT_SET_NO":999,"REV_AT_EPOCH":604,"BSTAR":-0.022076002,"MEAN_MOTION_DOT":-0.01968838,"MEAN_MOTION_DDOT":0}]
